start=new Date('2022-03-24T00:00:00.000Z').valueOf();
sats=[{"LAUNCH_DATE":"2021-01-20","MEAN_ELEMENT_THEORY":"SGP4","NORAD_CAT_ID":"47354","COUNTRY_CODE":"US","RCS_SIZE":"LARGE","ARG_OF_PERICENTER":"56.9742","FILE":"3371636","MEAN_MOTION":"15.06397838","GP_ID":"199537051","REV_AT_EPOCH":"6546","MEAN_ANOMALY":"303.1416","SITE":"AFETR","TLE_LINE2":"2 47354  53.0548  41.6267 0001767  56.9742 303.1416 15.06397838 65469","EPHEMERIS_TYPE":"0","CLASSIFICATION_TYPE":"U","EPOCH":"2022-03-23T20:58:55.189632","BSTAR":"0.00001628700000","OBJECT_ID":"2021-005F","PERIOD":"95.592","DECAY_DATE":null,"MEAN_MOTION_DOT":"-0.00000039","MEAN_MOTION_DDOT":"0.0000000000000","REF_FRAME":"TEME","OBJECT_NAME":"STARLINK-2046","SEMIMAJOR_AXIS":"6925.355","PERIAPSIS":"545.996","APOAPSIS":"548.444","RA_OF_ASC_NODE":"41.6267","TIME_SYSTEM":"UTC","ECCENTRICITY":"0.00017670","OBJECT_TYPE":"PAYLOAD","ELEMENT_SET_NO":"999","CENTER_NAME":"EARTH","INCLINATION":"53.0548","TLE_LINE1":"1 47354U 21005F   22082.87424988 -.00000039  00000-0  16287-4 0  9996"},{"MEAN_MOTION":"15.06406180","FILE":"3371636","ARG_OF_PERICENTER":"62.0061","NORAD_CAT_ID":"47355","MEAN_ELEMENT_THEORY":"SGP4","LAUNCH_DATE":"2021-01-20","RCS_SIZE":"LARGE","COUNTRY_CODE":"US","TLE_LINE2":"2 47355  53.0445  26.8749 0001683  62.0061 298.1098 15.06406180 65667","EPHEMERIS_TYPE":"0","REV_AT_EPOCH":"6566","GP_ID":"199537301","SITE":"AFETR","MEAN_ANOMALY":"298.1098","OBJECT_NAME":"STARLINK-2047","REF_FRAME":"TEME","MEAN_MOTION_DDOT":"0.0000000000000","PERIAPSIS":"546.029","APOAPSIS":"548.360","SEMIMAJOR_AXIS":"6925.330","BSTAR":"0.00021458000000","EPOCH":"2022-03-23T19:54:33.238368","CLASSIFICATION_TYPE":"U","DECAY_DATE":null,"MEAN_MOTION_DOT":"0.00002917","PERIOD":"95.592","OBJECT_ID":"2021-005G","ELEMENT_SET_NO":"999","OBJECT_TYPE":"PAYLOAD","TLE_LINE1":"1 47355U 21005G   22082.82955137  .00002917  00000-0  21458-3 0  9998","INCLINATION":"53.0445","CENTER_NAME":"EARTH","RA_OF_ASC_NODE":"26.8749","ECCENTRICITY":"0.00016830","TIME_SYSTEM":"UTC"},{"ARG_OF_PERICENTER":"64.2478","MEAN_MOTION":"15.06403547","FILE":"3371208","LAUNCH_DATE":"2021-01-20","NORAD_CAT_ID":"47356","MEAN_ELEMENT_THEORY":"SGP4","COUNTRY_CODE":"US","RCS_SIZE":"LARGE","EPHEMERIS_TYPE":"0","TLE_LINE2":"2 47356  53.0564  48.7169 0001907  64.2478 295.8708 15.06403547 65323","GP_ID":"199477752","REV_AT_EPOCH":"6532","SITE":"AFETR","MEAN_ANOMALY":"295.8708","MEAN_MOTION_DDOT":"0.0000000000000","OBJECT_NAME":"STARLINK-2049","REF_FRAME":"TEME","SEMIMAJOR_AXIS":"6925.338","APOAPSIS":"548.523","PERIAPSIS":"545.882","EPOCH":"2022-03-23T09:52:08.435136","CLASSIFICATION_TYPE":"U","BSTAR":"0.00005621900000","PERIOD":"95.592","OBJECT_ID":"2021-005H","DECAY_DATE":null,"MEAN_MOTION_DOT":"0.00000556","OBJECT_TYPE":"PAYLOAD","ELEMENT_SET_NO":"999","CENTER_NAME":"EARTH","INCLINATION":"53.0564","TLE_LINE1":"1 47356U 21005H   22082.41120874  .00000556  00000-0  56219-4 0  9997","RA_OF_ASC_NODE":"48.7169","TIME_SYSTEM":"UTC","ECCENTRICITY":"0.00019070"},{"RA_OF_ASC_NODE":"77.4658","ECCENTRICITY":"0.00016860","TIME_SYSTEM":"UTC","ELEMENT_SET_NO":"999","OBJECT_TYPE":"PAYLOAD","TLE_LINE1":"1 47357U 21005J   22082.68489385 -.00001531  00000-0 -83946-4 0  9995","INCLINATION":"53.0549","CENTER_NAME":"EARTH","BSTAR":"-0.00008394600000","CLASSIFICATION_TYPE":"U","EPOCH":"2022-03-23T16:26:14.828640","MEAN_MOTION_DOT":"-0.00001531","DECAY_DATE":null,"OBJECT_ID":"2021-005J","PERIOD":"95.593","REF_FRAME":"TEME","OBJECT_NAME":"STARLINK-2050","MEAN_MOTION_DDOT":"0.0000000000000","APOAPSIS":"548.406","PERIAPSIS":"546.070","SEMIMAJOR_AXIS":"6925.373","REV_AT_EPOCH":"6494","GP_ID":"199538303","MEAN_ANOMALY":"302.9882","SITE":"AFETR","EPHEMERIS_TYPE":"0","TLE_LINE2":"2 47357  53.0549  77.4658 0001686  57.1269 302.9882 15.06392015 64949","MEAN_ELEMENT_THEORY":"SGP4","NORAD_CAT_ID":"47357","LAUNCH_DATE":"2021-01-20","RCS_SIZE":"LARGE","COUNTRY_CODE":"US","FILE":"3371636","MEAN_MOTION":"15.06392015","ARG_OF_PERICENTER":"57.1269"},{"OBJECT_ID":"2021-005K","PERIOD":"95.592","DECAY_DATE":null,"MEAN_MOTION_DOT":"0.00000675","CLASSIFICATION_TYPE":"U","EPOCH":"2022-03-23T21:16:49.785312","BSTAR":"0.00006418900000","SEMIMAJOR_AXIS":"6925.345","PERIAPSIS":"546.007","APOAPSIS":"548.413","MEAN_MOTION_DDOT":"0.0000000000000","REF_FRAME":"TEME","OBJECT_NAME":"STARLINK-2055","TIME_SYSTEM":"UTC","ECCENTRICITY":"0.00017370","RA_OF_ASC_NODE":"46.5720","CENTER_NAME":"EARTH","INCLINATION":"53.0561","TLE_LINE1":"1 47358U 21005K   22082.88668733  .00000675  00000-0  64189-4 0  9998","OBJECT_TYPE":"PAYLOAD","ELEMENT_SET_NO":"999","COUNTRY_CODE":"US","RCS_SIZE":"LARGE","LAUNCH_DATE":"2021-01-20","MEAN_ELEMENT_THEORY":"SGP4","NORAD_CAT_ID":"47358","ARG_OF_PERICENTER":"59.8091","FILE":"3371636","MEAN_MOTION":"15.06401196","MEAN_ANOMALY":"300.3070","SITE":"AFETR","GP_ID":"199536551","REV_AT_EPOCH":"6539","TLE_LINE2":"2 47358  53.0561  46.5720 0001737  59.8091 300.3070 15.06401196 65392","EPHEMERIS_TYPE":"0"},{"COUNTRY_CODE":"US","RCS_SIZE":"LARGE","LAUNCH_DATE":"2021-01-20","MEAN_ELEMENT_THEORY":"SGP4","NORAD_CAT_ID":"47359","ARG_OF_PERICENTER":"62.3952","FILE":"3371636","MEAN_MOTION":"15.06410422","MEAN_ANOMALY":"297.7204","SITE":"AFETR","GP_ID":"199536801","REV_AT_EPOCH":"6502","EPHEMERIS_TYPE":"0","TLE_LINE2":"2 47359  53.0539  72.1110 0001641  62.3952 297.7204 15.06410422 65025","OBJECT_ID":"2021-005L","PERIOD":"95.591","DECAY_DATE":null,"MEAN_MOTION_DOT":"-0.00003189","CLASSIFICATION_TYPE":"U","EPOCH":"2022-03-23T18:21:00.561312","BSTAR":"-0.00019525000000","SEMIMAJOR_AXIS":"6925.317","APOAPSIS":"548.318","PERIAPSIS":"546.045","MEAN_MOTION_DDOT":"0.0000000000000","REF_FRAME":"TEME","OBJECT_NAME":"STARLINK-2069","TIME_SYSTEM":"UTC","ECCENTRICITY":"0.00016410","RA_OF_ASC_NODE":"72.1110","INCLINATION":"53.0539","CENTER_NAME":"EARTH","TLE_LINE1":"1 47359U 21005L   22082.76458983 -.00003189  00000-0 -19525-3 0  9998","OBJECT_TYPE":"PAYLOAD","ELEMENT_SET_NO":"999"},{"ECCENTRICITY":"0.00017840","TIME_SYSTEM":"UTC","RA_OF_ASC_NODE":"44.1811","TLE_LINE1":"1 47360U 21005M   22082.30662257 -.00000833  00000-0 -37051-4 0  9999","INCLINATION":"53.0564","CENTER_NAME":"EARTH","ELEMENT_SET_NO":"999","OBJECT_TYPE":"PAYLOAD","MEAN_MOTION_DOT":"-0.00000833","DECAY_DATE":null,"OBJECT_ID":"2021-005M","PERIOD":"95.592","BSTAR":"-0.00003705100000","CLASSIFICATION_TYPE":"U","EPOCH":"2022-03-23T07:21:32.190048","PERIAPSIS":"545.992","APOAPSIS":"548.463","SEMIMAJOR_AXIS":"6925.362","REF_FRAME":"TEME","OBJECT_NAME":"STARLINK-2070","MEAN_MOTION_DDOT":"0.0000000000000","MEAN_ANOMALY":"306.9686","SITE":"AFETR","REV_AT_EPOCH":"6538","GP_ID":"199477252","EPHEMERIS_TYPE":"0","TLE_LINE2":"2 47360  53.0564  44.1811 0001784  53.1466 306.9686 15.06395481 65381","RCS_SIZE":"LARGE","COUNTRY_CODE":"US","MEAN_ELEMENT_THEORY":"SGP4","NORAD_CAT_ID":"47360","LAUNCH_DATE":"2021-01-20","FILE":"3371208","MEAN_MOTION":"15.06395481","ARG_OF_PERICENTER":"53.1466"},{"EPHEMERIS_TYPE":"0","TLE_LINE2":"2 47361  53.0564  46.5327 0001784  51.5861 308.5288 15.06399151 65396","MEAN_ANOMALY":"308.5288","SITE":"AFETR","REV_AT_EPOCH":"6539","GP_ID":"199537803","FILE":"3371636","MEAN_MOTION":"15.06399151","ARG_OF_PERICENTER":"51.5861","RCS_SIZE":"LARGE","COUNTRY_CODE":"US","MEAN_ELEMENT_THEORY":"SGP4","NORAD_CAT_ID":"47361","LAUNCH_DATE":"2021-01-20","TLE_LINE1":"1 47361U 21005N   22082.89406135 -.00000646  00000-0 -24446-4 0  9991","INCLINATION":"53.0564","CENTER_NAME":"EARTH","ELEMENT_SET_NO":"999","OBJECT_TYPE":"PAYLOAD","ECCENTRICITY":"0.00017840","TIME_SYSTEM":"UTC","RA_OF_ASC_NODE":"46.5327","PERIAPSIS":"545.981","APOAPSIS":"548.452","SEMIMAJOR_AXIS":"6925.351","REF_FRAME":"TEME","OBJECT_NAME":"STARLINK-2071","MEAN_MOTION_DDOT":"0.0000000000000","DECAY_DATE":null,"MEAN_MOTION_DOT":"-0.00000646","OBJECT_ID":"2021-005N","PERIOD":"95.592","BSTAR":"-0.00002444600000","CLASSIFICATION_TYPE":"U","EPOCH":"2022-03-23T21:27:26.900640"},{"BSTAR":"0.00009132000000","CLASSIFICATION_TYPE":"U","EPOCH":"2022-03-23T16:10:19.700832","MEAN_MOTION_DOT":"0.00001079","DECAY_DATE":null,"OBJECT_ID":"2021-005P","PERIOD":"95.591","REF_FRAME":"TEME","OBJECT_NAME":"STARLINK-2076","MEAN_MOTION_DDOT":"0.0000000000000","APOAPSIS":"548.442","PERIAPSIS":"545.898","SEMIMAJOR_AXIS":"6925.305","RA_OF_ASC_NODE":"77.5251","ECCENTRICITY":"0.00018370","TIME_SYSTEM":"UTC","ELEMENT_SET_NO":"999","OBJECT_TYPE":"PAYLOAD","TLE_LINE1":"1 47362U 21005P   22082.67383913  .00001079  00000-0  91320-4 0  9990","INCLINATION":"53.0541","CENTER_NAME":"EARTH","MEAN_ELEMENT_THEORY":"SGP4","NORAD_CAT_ID":"47362","LAUNCH_DATE":"2021-01-20","RCS_SIZE":"LARGE","COUNTRY_CODE":"US","FILE":"3371636","MEAN_MOTION":"15.06414199","ARG_OF_PERICENTER":"58.9053","REV_AT_EPOCH":"6494","GP_ID":"199537052","MEAN_ANOMALY":"301.2116","SITE":"AFETR","EPHEMERIS_TYPE":"0","TLE_LINE2":"2 47362  53.0541  77.5251 0001837  58.9053 301.2116 15.06414199 64945"},{"COUNTRY_CODE":"US","RCS_SIZE":"LARGE","LAUNCH_DATE":"2021-01-20","NORAD_CAT_ID":"47363","MEAN_ELEMENT_THEORY":"SGP4","ARG_OF_PERICENTER":"51.4636","MEAN_MOTION":"15.06396291","FILE":"3371208","SITE":"AFETR","MEAN_ANOMALY":"308.6526","GP_ID":"199477007","REV_AT_EPOCH":"6491","EPHEMERIS_TYPE":"0","TLE_LINE2":"2 47363  53.0541  78.3909 0001931  51.4636 308.6526 15.06396291 64910","PERIOD":"95.592","OBJECT_ID":"2021-005Q","MEAN_MOTION_DOT":"-0.00001319","DECAY_DATE":null,"EPOCH":"2022-03-23T11:29:00.588192","CLASSIFICATION_TYPE":"U","BSTAR":"-0.00006962900000","SEMIMAJOR_AXIS":"6925.360","APOAPSIS":"548.562","PERIAPSIS":"545.888","MEAN_MOTION_DDOT":"0.0000000000000","OBJECT_NAME":"STARLINK-2077","REF_FRAME":"TEME","TIME_SYSTEM":"UTC","ECCENTRICITY":"0.00019310","RA_OF_ASC_NODE":"78.3909","CENTER_NAME":"EARTH","INCLINATION":"53.0541","TLE_LINE1":"1 47363U 21005Q   22082.47847903 -.00001319  00000-0 -69629-4 0  9999","OBJECT_TYPE":"PAYLOAD","ELEMENT_SET_NO":"999"}];
